LANDSAT 9               
1 49260U 21088A   23264.09400982  .00000720  00000+0  16992-3 0  9997
2 49260  98.2215 332.8024 0001387  92.0804 268.0553 14.57117957105354
